{"type":"FeatureCollection", "features": [
{"type":"Feature","geometry":{"type":"Polygon","coordinates":[[[134.867,35.658],[134.854,35.588],[134.926,35.513],[135.037,35.537],[135.05,35.442],[135,35.387],[134.923,35.394],[134.921,35.316],[135.057,35.258],[135.161,35.257],[135.156,35.226],[135.295,35.142],[135.34,35.15],[135.393,35.111],[135.371,35.045],[135.382,35.01],[135.493,34.988],[135.481,34.949],[135.551,34.918],[135.571,34.967],[135.675,34.899],[135.691,34.856],[135.745,34.804],[135.728,34.778],[135.755,34.728],[135.89,34.709],[135.916,34.753],[136.014,34.708],[136.055,34.738],[136.022,34.792],[136.027,34.822],[135.898,34.871],[135.879,34.934],[135.815,35.046],[135.851,35.131],[135.829,35.221],[135.845,35.261],[135.768,35.356],[135.701,35.344],[135.642,35.367],[135.534,35.377],[135.525,35.421],[135.459,35.473],[135.449,35.524],[135.486,35.558],[135.401,35.562],[135.288,35.516],[135.187,35.559],[135.3,35.682],[135.287,35.726],[135.221,35.772],[135.086,35.74],[135.022,35.69],[134.985,35.692],[134.923,35.646],[134.867,35.658]]]},"properties":{"nam":"Kyoto Fu","nam_ja":"京都府","id":26}},
{"type":"Feature","geometry":{"type":"Polygon","coordinates":[[[130.039,33.47],[129.961,33.459],[129.968,33.513],[129.896,33.549],[129.783,33.454],[129.864,33.408],[129.831,33.304],[129.79,33.34],[129.759,33.29],[129.811,33.242],[129.818,33.183],[129.888,33.156],[129.938,33.165],[129.939,33.073],[130.086,32.975],[130.203,32.957],[130.191,32.999],[130.128,33.108],[130.247,33.192],[130.288,33.147],[130.355,33.14],[130.339,33.203],[130.388,33.255],[130.44,33.265],[130.541,33.366],[130.512,33.449],[130.429,33.397],[130.277,33.478],[130.184,33.467],[130.039,33.47]]]},"properties":{"nam":"Saga Ken","nam_ja":"佐賀県","id":41}},
{"type":"Feature","geometry":{"type":"MultiPolygon","coordinates":[[[[131.329,32.833],[131.263,32.879],[131.246,32.941],[131.263,32.976],[131.214,33.055],[131.174,33.083],[131.16,33.141],[131.115,33.18],[131.038,33.194],[130.992,33.183],[130.978,33.141],[131.023,33.087],[130.969,33.024],[130.886,33.087],[130.839,33.104],[130.722,33.152],[130.667,33.157],[130.659,33.116],[130.58,33.116],[130.494,33.049],[130.504,33.004],[130.413,33.003],[130.442,32.926],[130.527,32.878],[130.601,32.811],[130.607,32.713],[130.566,32.699],[130.486,32.613],[130.615,32.631],[130.608,32.593],[130.542,32.495],[130.573,32.434],[130.511,32.391],[130.467,32.285],[130.372,32.204],[130.36,32.168],[130.404,32.12],[130.622,32.156],[130.72,32.101],[130.857,32.1],[130.913,32.131],[130.974,32.122],[131.003,32.169],[131.096,32.153],[131.1,32.201],[131.046,32.244],[131.111,32.328],[131.074,32.357],[131.066,32.407],[131.019,32.439],[131.006,32.493],[131.054,32.588],[131.099,32.578],[131.114,32.639],[131.179,32.711],[131.231,32.744],[131.265,32.826],[131.329,32.833]]],[[[130.353,32.405],[130.413,32.422],[130.456,32.519],[130.317,32.517],[130.288,32.487],[130.204,32.451],[130.185,32.548],[130.12,32.547],[130.043,32.512],[130.036,32.464],[129.975,32.354],[129.994,32.307],[129.983,32.246],[130.021,32.193],[130.101,32.237],[130.14,32.309],[130.181,32.311],[130.224,32.369],[130.219,32.424],[130.308,32.396],[130.353,32.405]]]]},"properties":{"nam":"Kumamoto Ken","nam_ja":"熊本県","id":43}},
{"type":"Feature","geometry":{"type":"MultiPolygon","coordinates":[[[[134.332,34.563],[134.258,34.549],[134.182,34.516],[134.144,34.478],[134.297,34.48],[134.359,34.53],[134.332,34.563]]],[[[133.679,34.012],[133.783,34.08],[133.921,34.114],[134.001,34.075],[134.05,34.118],[134.122,34.119],[134.146,34.165],[134.259,34.183],[134.359,34.184],[134.418,34.158],[134.44,34.208],[134.391,34.253],[134.262,34.283],[134.255,34.347],[134.083,34.349],[133.976,34.373],[133.822,34.325],[133.698,34.234],[133.622,34.235],[133.648,34.185],[133.627,34.053],[133.598,34.044],[133.679,34.012]]]]},"properties":{"nam":"Kagawa Ken","nam_ja":"香川県","id":37}},
{"type":"Feature","geometry":{"type":"Polygon","coordinates":[[[137.562,35.289],[137.442,35.234],[137.305,35.29],[137.222,35.256],[137.096,35.291],[137.049,35.358],[136.961,35.399],[136.834,35.356],[136.77,35.369],[136.678,35.241],[136.673,35.135],[136.751,35.077],[136.77,35.021],[136.869,35.042],[136.828,34.961],[136.821,34.884],[136.866,34.837],[136.841,34.763],[136.949,34.7],[136.963,34.735],[136.914,34.771],[136.93,34.848],[136.997,34.816],[137.027,34.777],[137.187,34.79],[137.225,34.819],[137.311,34.804],[137.32,34.733],[137.118,34.635],[137.057,34.649],[137.024,34.587],[137.144,34.59],[137.341,34.648],[137.484,34.674],[137.476,34.747],[137.502,34.833],[137.64,34.892],[137.688,34.956],[137.717,35.035],[137.775,35.077],[137.828,35.154],[137.838,35.212],[137.78,35.203],[137.706,35.234],[137.577,35.199],[137.553,35.24],[137.562,35.289]]]},"properties":{"nam":"Aichi Ken","nam_ja":"愛知県","id":23}},
{"type":"Feature","geometry":{"type":"Polygon","coordinates":[[[140.264,36.933],[140.241,37.001],[140.194,37.064],[140.101,37.123],[139.955,37.155],[139.831,37.132],[139.821,37.087],[139.673,37.058],[139.619,37.017],[139.495,36.968],[139.46,36.97],[139.393,36.911],[139.356,36.878],[139.405,36.825],[139.353,36.774],[139.367,36.726],[139.337,36.692],[139.331,36.627],[139.471,36.602],[139.483,36.578],[139.419,36.501],[139.411,36.449],[139.361,36.384],[139.418,36.337],[139.464,36.272],[139.527,36.285],[139.634,36.27],[139.665,36.207],[139.688,36.2],[139.822,36.24],[139.849,36.311],[140.144,36.414],[140.185,36.398],[140.249,36.533],[140.232,36.7],[140.267,36.824],[140.249,36.92],[140.264,36.933]]]},"properties":{"nam":"Tochigi Ken","nam_ja":"栃木県","id":9}},
{"type":"Feature","geometry":{"type":"Polygon","coordinates":[[[138.729,35.909],[138.676,35.87],[138.611,35.874],[138.605,35.909],[138.509,35.922],[138.454,35.9],[138.44,35.952],[138.37,35.971],[138.292,35.867],[138.248,35.886],[138.186,35.795],[138.236,35.758],[138.18,35.713],[138.219,35.644],[138.259,35.552],[138.256,35.319],[138.328,35.328],[138.399,35.2],[138.492,35.168],[138.532,35.223],[138.512,35.314],[138.535,35.331],[138.532,35.406],[138.578,35.442],[138.61,35.393],[138.663,35.398],[138.68,35.358],[138.872,35.382],[138.916,35.401],[138.954,35.46],[139.085,35.512],[139.129,35.564],[139.131,35.672],[139.026,35.719],[138.984,35.769],[138.944,35.855],[138.893,35.84],[138.729,35.909]]]},"properties":{"nam":"Yamanashi Ken","nam_ja":"山梨県","id":19}},
{"type":"Feature","geometry":{"type":"Polygon","coordinates":[[[136.022,34.792],[136.088,34.811],[136.107,34.852],[136.165,34.888],[136.25,34.858],[136.357,34.901],[136.414,34.98],[136.436,35.13],[136.454,35.162],[136.415,35.218],[136.391,35.288],[136.411,35.314],[136.426,35.448],[136.388,35.496],[136.4,35.53],[136.318,35.547],[136.315,35.623],[136.281,35.659],[136.15,35.698],[136.134,35.67],[136.177,35.596],[136.112,35.576],[136.105,35.529],[136.026,35.53],[135.982,35.487],[135.94,35.52],[135.89,35.404],[135.812,35.412],[135.768,35.356],[135.845,35.261],[135.829,35.221],[135.851,35.131],[135.815,35.046],[135.879,34.934],[135.898,34.871],[136.027,34.822],[136.022,34.792]]]},"properties":{"nam":"Shiga Ken","nam_ja":"滋賀県","id":25}},
{"type":"Feature","geometry":{"type":"Polygon","coordinates":[[[139.393,36.911],[139.232,36.941],[139.097,37.059],[139.047,36.987],[138.97,36.981],[138.979,36.891],[138.826,36.772],[138.696,36.739],[138.543,36.704],[138.525,36.651],[138.458,36.633],[138.404,36.521],[138.401,36.435],[138.49,36.402],[138.592,36.424],[138.648,36.408],[138.654,36.303],[138.6,36.278],[138.635,36.206],[138.631,36.028],[138.713,35.985],[138.755,36.035],[138.829,36.037],[138.847,36.067],[138.931,36.088],[139.016,36.134],[139.108,36.253],[139.164,36.279],[139.238,36.246],[139.324,36.23],[139.377,36.244],[139.444,36.197],[139.526,36.191],[139.588,36.21],[139.665,36.207],[139.634,36.27],[139.527,36.285],[139.464,36.272],[139.418,36.337],[139.361,36.384],[139.411,36.449],[139.419,36.501],[139.483,36.578],[139.471,36.602],[139.331,36.627],[139.337,36.692],[139.367,36.726],[139.353,36.774],[139.405,36.825],[139.356,36.878],[139.393,36.911]]]},"properties":{"nam":"Gunma Ken","nam_ja":"群馬県","id":10}},
{"type":"Feature","geometry":{"type":"Polygon","coordinates":[[[141.632,38.971],[141.568,38.996],[141.491,38.998],[141.489,38.907],[141.451,38.877],[141.454,38.812],[141.422,38.78],[141.308,38.82],[141.258,38.763],[141.14,38.79],[141.104,38.829],[141.094,38.888],[140.992,38.876],[140.826,38.964],[140.774,38.958],[140.644,38.888],[140.547,38.89],[140.591,38.835],[140.619,38.673],[140.588,38.634],[140.579,38.569],[140.578,38.393],[140.471,38.27],[140.48,38.181],[140.421,38.087],[140.373,38.057],[140.276,38.035],[140.28,37.977],[140.346,37.951],[140.387,37.968],[140.475,37.947],[140.488,37.9],[140.562,37.911],[140.661,37.901],[140.693,37.859],[140.695,37.803],[140.777,37.781],[140.853,37.796],[140.857,37.891],[140.931,37.896],[140.915,37.981],[140.928,38.087],[140.965,38.185],[141.03,38.276],[141.063,38.37],[141.161,38.365],[141.298,38.414],[141.411,38.397],[141.465,38.339],[141.54,38.317],[141.497,38.44],[141.467,38.561],[141.525,38.611],[141.482,38.675],[141.546,38.712],[141.522,38.789],[141.592,38.823],[141.605,38.88],[141.662,38.897],[141.632,38.971]]]},"properties":{"nam":"Miyagi Ken","nam_ja":"宮城県","id":4}},
{"type":"Feature","geometry":{"type":"Polygon","coordinates":[[[137.484,34.674],[137.585,34.679],[137.799,34.645],[137.911,34.667],[138.078,34.642],[138.193,34.6],[138.219,34.717],[138.295,34.767],[138.339,34.833],[138.326,34.866],[138.357,34.915],[138.515,34.983],[138.533,35.055],[138.574,35.11],[138.698,35.137],[138.828,35.107],[138.872,35.071],[138.883,35.025],[138.787,35.024],[138.763,34.975],[138.79,34.908],[138.752,34.823],[138.776,34.764],[138.742,34.723],[138.794,34.623],[138.844,34.601],[138.905,34.629],[138.973,34.691],[139.006,34.752],[139.058,34.785],[139.078,34.843],[139.131,34.879],[139.146,34.953],[139.096,34.976],[139.1,35.046],[139.075,35.093],[139.111,35.141],[139.031,35.15],[138.988,35.201],[138.975,35.262],[139.019,35.33],[138.995,35.403],[138.916,35.401],[138.872,35.382],[138.68,35.358],[138.663,35.398],[138.61,35.393],[138.578,35.442],[138.532,35.406],[138.535,35.331],[138.512,35.314],[138.532,35.223],[138.492,35.168],[138.399,35.2],[138.328,35.328],[138.256,35.319],[138.259,35.552],[138.219,35.644],[138.19,35.579],[138.138,35.522],[138.155,35.459],[138.142,35.371],[138.072,35.346],[137.967,35.283],[137.882,35.248],[137.838,35.212],[137.828,35.154],[137.775,35.077],[137.717,35.035],[137.688,34.956],[137.64,34.892],[137.502,34.833],[137.476,34.747],[137.484,34.674]]]},"properties":{"nam":"Shizuoka Ken","nam_ja":"静岡県","id":22}},
{"type":"Feature","geometry":{"type":"Polygon","coordinates":[[[139.688,36.2],[139.73,36.088],[139.776,36.091],[139.878,36.007],[139.939,35.94],[140.147,35.846],[140.308,35.865],[140.356,35.894],[140.458,35.926],[140.511,35.959],[140.613,35.89],[140.632,35.859],[140.706,35.837],[140.73,35.796],[140.82,35.74],[140.852,35.744],[140.775,35.823],[140.657,35.996],[140.572,36.185],[140.56,36.292],[140.622,36.362],[140.612,36.478],[140.717,36.693],[140.747,36.781],[140.794,36.86],[140.695,36.888],[140.593,36.881],[140.539,36.859],[140.464,36.792],[140.377,36.838],[140.363,36.885],[140.264,36.933],[140.249,36.92],[140.267,36.824],[140.232,36.7],[140.249,36.533],[140.185,36.398],[140.144,36.414],[139.849,36.311],[139.822,36.24],[139.688,36.2]]]},"properties":{"nam":"Ibaraki Ken","nam_ja":"茨城県","id":8}},
{"type":"Feature","geometry":{"type":"MultiPolygon","coordinates":[[[[128.153,26.717],[128.117,26.702],[128.085,26.649],[128.023,26.626],[127.997,26.69],[127.948,26.708],[127.872,26.687],[127.894,26.606],[127.98,26.587],[127.933,26.538],[127.717,26.4],[127.756,26.294],[127.707,26.273],[127.635,26.198],[127.676,26.074],[127.733,26.099],[127.83,26.168],[127.765,26.205],[127.809,26.294],[127.862,26.345],[127.84,26.405],[127.852,26.45],[127.942,26.441],[127.991,26.503],[128.135,26.554],[128.145,26.624],[128.234,26.63],[128.278,26.677],[128.32,26.756],[128.315,26.82],[128.268,26.86],[128.221,26.787],[128.153,26.717]]],[[[126.725,26.346],[126.777,26.306],[126.821,26.35],[126.778,26.39],[126.725,26.346]]],[[[125.306,24.711],[125.39,24.729],[125.43,24.761],[125.332,24.799],[125.294,24.845],[125.255,24.795],[125.306,24.711]]],[[[124.173,24.328],[124.246,24.357],[124.249,24.465],[124.15,24.452],[124.138,24.39],[124.108,24.363],[124.173,24.328]]],[[[123.872,24.254],[123.928,24.327],[123.879,24.399],[123.811,24.409],[123.745,24.387],[123.745,24.321],[123.683,24.331],[123.68,24.282],[123.832,24.271],[123.872,24.254]]]]},"properties":{"nam":"Okinawa Ken","nam_ja":"沖縄県","id":47}},
{"type":"Feature","geometry":{"type":"Polygon","coordinates":[[[140.547,38.89],[140.462,38.92],[140.446,38.98],[140.261,39.036],[140.202,39.035],[140.076,39.087],[140.063,39.134],[139.87,39.119],[139.879,39.098],[139.84,38.985],[139.747,38.776],[139.627,38.688],[139.548,38.553],[139.602,38.523],[139.722,38.497],[139.723,38.394],[139.747,38.362],[139.817,38.356],[139.9,38.276],[139.861,38.232],[139.683,38.17],[139.693,38.115],[139.644,37.995],[139.629,37.894],[139.681,37.847],[139.81,37.803],[139.958,37.814],[139.993,37.759],[140.054,37.771],[140.1,37.741],[140.167,37.757],[140.237,37.747],[140.299,37.809],[140.263,37.836],[140.28,37.977],[140.276,38.035],[140.373,38.057],[140.421,38.087],[140.48,38.181],[140.471,38.27],[140.578,38.393],[140.579,38.569],[140.588,38.634],[140.619,38.673],[140.591,38.835],[140.547,38.89]]]},"properties":{"nam":"Yamagata Ken","nam_ja":"山形県","id":6}},
{"type":"Feature","geometry":{"type":"MultiPolygon","coordinates":[[[[135.651,34.383],[135.579,34.376],[135.508,34.337],[135.431,34.347],[135.342,34.334],[135.289,34.302],[135.247,34.313],[135.184,34.279],[135.111,34.272],[135.093,34.312],[135.073,34.277],[135.138,34.225],[135.184,34.148],[135.115,34.12],[135.105,34.071],[135.162,34.037],[135.058,33.903],[135.144,33.883],[135.186,33.819],[135.354,33.744],[135.394,33.704],[135.381,33.651],[135.405,33.578],[135.511,33.525],[135.664,33.49],[135.771,33.479],[135.916,33.553],[135.939,33.646],[136.011,33.724],[135.966,33.724],[135.856,33.818],[135.858,33.873],[135.808,33.906],[135.756,33.885],[135.687,33.904],[135.607,33.899],[135.636,33.991],[135.58,34.057],[135.54,34.075],[135.588,34.146],[135.622,34.16],[135.668,34.224],[135.673,34.281],[135.651,34.383]]],[[[136.003,34.01],[135.927,33.981],[135.909,33.918],[135.969,33.929],[136.003,34.01]]]]},"properties":{"nam":"Wakayama Ken","nam_ja":"和歌山県","id":30}},
{"type":"Feature","geometry":{"type":"MultiPolygon","coordinates":[[[[129.79,33.34],[129.744,33.367],[129.704,33.346],[129.656,33.375],[129.576,33.38],[129.561,33.324],[129.591,33.305],[129.563,33.217],[129.766,33.125],[129.792,33.082],[129.876,33.064],[129.945,33.014],[129.934,32.92],[129.833,32.85],[129.806,32.887],[129.823,32.972],[129.761,33.049],[129.678,33.1],[129.634,32.947],[129.685,32.852],[129.776,32.798],[129.85,32.719],[129.816,32.655],[129.895,32.663],[129.955,32.741],[130.083,32.794],[130.179,32.794],[130.206,32.729],[130.137,32.681],[130.13,32.639],[130.219,32.606],[130.276,32.654],[130.353,32.682],[130.377,32.778],[130.339,32.856],[130.241,32.875],[130.158,32.841],[130.116,32.882],[130.179,32.914],[130.203,32.957],[130.086,32.975],[129.939,33.073],[129.938,33.165],[129.888,33.156],[129.818,33.183],[129.811,33.242],[129.759,33.29],[129.79,33.34]]],[[[129.383,34.424],[129.385,34.458],[129.47,34.554],[129.489,34.665],[129.442,34.701],[129.383,34.649],[129.319,34.632],[129.286,34.56],[129.327,34.538],[129.273,34.468],[129.271,34.391],[129.314,34.341],[129.393,34.362],[129.383,34.424]]],[[[129.213,34.084],[129.281,34.13],[129.339,34.299],[129.221,34.298],[129.184,34.247],[129.167,34.139],[129.213,34.084]]],[[[129.716,33.704],[129.763,33.783],[129.767,33.846],[129.698,33.861],[129.649,33.807],[129.677,33.728],[129.716,33.704]]],[[[129.375,33.169],[129.433,33.191],[129.501,33.26],[129.515,33.324],[129.436,33.347],[129.446,33.296],[129.404,33.271],[129.375,33.169]]],[[[129.059,32.817],[129.066,32.863],[129.11,32.938],[129.18,32.971],[129.169,33.003],[129.096,32.981],[129.087,33.026],[128.995,32.965],[129.044,32.923],[129.059,32.817]]],[[[128.772,32.574],[128.768,32.643],[128.869,32.644],[128.838,32.713],[128.846,32.753],[128.793,32.785],[128.747,32.751],[128.65,32.775],[128.664,32.66],[128.598,32.614],[128.652,32.591],[128.738,32.606],[128.772,32.574]]]]},"properties":{"nam":"Nagasaki Ken","nam_ja":"長崎県","id":42}},
{"type":"Feature","geometry":{"type":"Polygon","coordinates":[[[140.774,38.958],[140.764,39],[140.801,39.077],[140.77,39.124],[140.77,39.252],[140.693,39.302],[140.704,39.343],[140.654,39.391],[140.677,39.447],[140.724,39.481],[140.728,39.556],[140.805,39.612],[140.823,39.688],[140.783,39.73],[140.847,39.793],[140.784,39.829],[140.785,39.872],[140.878,39.875],[140.846,39.974],[140.882,40.151],[140.905,40.222],[140.955,40.248],[140.969,40.338],[140.994,40.351],[140.985,40.428],[140.893,40.424],[140.788,40.458],[140.647,40.404],[140.603,40.431],[140.525,40.42],[140.384,40.485],[140.299,40.447],[140.222,40.432],[140.108,40.436],[140.053,40.467],[139.936,40.429],[140.011,40.375],[140.025,40.325],[139.973,40.126],[139.915,40.03],[139.842,39.97],[139.695,39.98],[139.743,39.869],[139.812,39.858],[139.866,39.898],[139.921,39.901],[140.015,39.837],[140.05,39.774],[140.063,39.67],[140.059,39.587],[140.026,39.42],[139.968,39.297],[139.928,39.288],[139.894,39.213],[139.906,39.189],[139.87,39.119],[140.063,39.134],[140.076,39.087],[140.202,39.035],[140.261,39.036],[140.446,38.98],[140.462,38.92],[140.547,38.89],[140.644,38.888],[140.774,38.958]]]},"properties":{"nam":"Akita Ken","nam_ja":"秋田県","id":5}},
{"type":"Feature","geometry":{"type":"Polygon","coordinates":[[[134.402,35.241],[134.321,35.202],[134.266,35.208],[134.153,35.195],[134.139,35.279],[134.097,35.306],[134.01,35.308],[133.997,35.353],[133.925,35.308],[133.797,35.294],[133.747,35.318],[133.596,35.345],[133.566,35.255],[133.501,35.193],[133.397,35.165],[133.403,35.114],[133.288,35.096],[133.268,35.058],[133.32,34.987],[133.297,34.89],[133.378,34.805],[133.365,34.768],[133.383,34.622],[133.445,34.555],[133.446,34.48],[133.489,34.442],[133.659,34.52],[133.703,34.478],[133.783,34.438],[133.834,34.474],[133.91,34.451],[133.975,34.534],[134.054,34.587],[134.12,34.589],[134.28,34.733],[134.321,34.722],[134.316,34.802],[134.253,34.851],[134.294,34.908],[134.275,34.963],[134.281,35.035],[134.316,35.043],[134.366,35.145],[134.412,35.157],[134.38,35.218],[134.402,35.241]]]},"properties":{"nam":"Okayama Ken","nam_ja":"岡山県","id":33}},
{"type":"Feature","geometry":{"type":"Polygon","coordinates":[[[130.355,33.14],[130.424,33.053],[130.413,33.003],[130.504,33.004],[130.494,33.049],[130.58,33.116],[130.659,33.116],[130.667,33.157],[130.722,33.152],[130.839,33.104],[130.887,33.187],[130.836,33.211],[130.86,33.267],[130.85,33.337],[130.895,33.446],[130.974,33.505],[131.163,33.508],[131.189,33.562],[131.185,33.616],[131.099,33.619],[131.039,33.691],[131.017,33.768],[130.96,33.839],[130.993,33.851],[131.023,33.959],[130.962,33.962],[130.93,33.907],[130.854,33.929],[130.686,33.935],[130.622,33.882],[130.537,33.887],[130.479,33.851],[130.445,33.794],[130.466,33.753],[130.417,33.686],[130.395,33.61],[130.345,33.595],[130.231,33.617],[130.208,33.649],[130.146,33.595],[130.152,33.537],[130.039,33.47],[130.184,33.467],[130.277,33.478],[130.429,33.397],[130.512,33.449],[130.541,33.366],[130.44,33.265],[130.388,33.255],[130.339,33.203],[130.355,33.14]]]},"properties":{"nam":"Fukuoka Ken","nam_ja":"福岡県","id":40}},
{"type":"Feature","geometry":{"type":"Polygon","coordinates":[[[137.562,35.289],[137.633,35.399],[137.593,35.447],[137.631,35.47],[137.617,35.526],[137.582,35.539],[137.514,35.607],[137.545,35.65],[137.498,35.687],[137.459,35.761],[137.338,35.798],[137.38,35.892],[137.458,35.889],[137.543,35.983],[137.588,36.006],[137.614,36.061],[137.551,36.11],[137.591,36.184],[137.574,36.21],[137.647,36.289],[137.651,36.327],[137.587,36.39],[137.512,36.423],[137.461,36.412],[137.395,36.455],[137.313,36.425],[137.279,36.465],[137.205,36.434],[137.161,36.457],[137.079,36.384],[137.005,36.288],[136.907,36.361],[136.792,36.299],[136.852,36.248],[136.754,36.086],[136.726,35.996],[136.792,35.947],[136.832,35.858],[136.789,35.799],[136.723,35.808],[136.666,35.785],[136.59,35.796],[136.433,35.775],[136.378,35.795],[136.328,35.775],[136.324,35.717],[136.281,35.659],[136.315,35.623],[136.318,35.547],[136.4,35.53],[136.388,35.496],[136.426,35.448],[136.411,35.314],[136.391,35.288],[136.415,35.218],[136.502,35.235],[136.561,35.206],[136.616,35.15],[136.673,35.135],[136.678,35.241],[136.77,35.369],[136.834,35.356],[136.961,35.399],[137.049,35.358],[137.096,35.291],[137.222,35.256],[137.305,35.29],[137.442,35.234],[137.562,35.289]]]},"properties":{"nam":"Gifu Ken","nam_ja":"岐阜県","id":21}},
{"type":"Feature","geometry":{"type":"Polygon","coordinates":[[[140.955,40.248],[141.016,40.219],[141.101,40.282],[141.219,40.317],[141.317,40.373],[141.351,40.332],[141.436,40.374],[141.537,40.348],[141.587,40.407],[141.683,40.451],[141.565,40.543],[141.528,40.529],[141.473,40.585],[141.431,40.688],[141.387,40.942],[141.39,41.17],[141.41,41.253],[141.469,41.42],[141.329,41.355],[141.247,41.362],[141.193,41.388],[141.068,41.482],[141.003,41.486],[140.924,41.536],[140.897,41.476],[140.839,41.421],[140.765,41.194],[140.767,41.146],[140.812,41.129],[140.872,41.166],[140.982,41.2],[141.056,41.183],[141.115,41.215],[141.158,41.277],[141.223,41.253],[141.279,41.155],[141.247,41.106],[141.221,40.972],[141.163,40.89],[141.129,40.872],[140.999,40.937],[140.948,40.993],[140.888,41.011],[140.861,40.972],[140.859,40.888],[140.795,40.837],[140.697,40.857],[140.661,40.949],[140.635,41.077],[140.643,41.17],[140.603,41.215],[140.55,41.229],[140.497,41.189],[140.431,41.198],[140.342,41.25],[140.326,41.156],[140.286,41.121],[140.322,41.087],[140.319,41],[140.283,40.859],[140.251,40.802],[140.122,40.743],[140.052,40.769],[139.994,40.734],[139.924,40.645],[139.918,40.587],[139.949,40.493],[139.936,40.429],[140.053,40.467],[140.108,40.436],[140.222,40.432],[140.299,40.447],[140.384,40.485],[140.525,40.42],[140.603,40.431],[140.647,40.404],[140.788,40.458],[140.893,40.424],[140.985,40.428],[140.994,40.351],[140.969,40.338],[140.955,40.248]]]},"properties":{"nam":"Aomori Ken","nam_ja":"青森県","id":2}},
{"type":"Feature","geometry":{"type":"Polygon","coordinates":[[[135.371,35.045],[135.346,34.965],[135.442,34.939],[135.416,34.819],[135.459,34.735],[135.403,34.693],[135.444,34.644],[135.416,34.594],[135.418,34.519],[135.371,34.503],[135.353,34.451],[135.218,34.345],[135.093,34.312],[135.111,34.272],[135.184,34.279],[135.247,34.313],[135.289,34.302],[135.342,34.334],[135.431,34.347],[135.508,34.337],[135.579,34.376],[135.651,34.383],[135.675,34.4],[135.677,34.525],[135.65,34.545],[135.673,34.702],[135.728,34.778],[135.745,34.804],[135.691,34.856],[135.675,34.899],[135.571,34.967],[135.551,34.918],[135.481,34.949],[135.493,34.988],[135.382,35.01],[135.371,35.045]]]},"properties":{"nam":"Osaka Fu","nam_ja":"大阪府","id":27}},
{"type":"Feature","geometry":{"type":"Polygon","coordinates":[[[137.838,35.212],[137.882,35.248],[137.967,35.283],[138.072,35.346],[138.142,35.371],[138.155,35.459],[138.138,35.522],[138.19,35.579],[138.219,35.644],[138.18,35.713],[138.236,35.758],[138.186,35.795],[138.248,35.886],[138.292,35.867],[138.37,35.971],[138.44,35.952],[138.454,35.9],[138.509,35.922],[138.605,35.909],[138.611,35.874],[138.676,35.87],[138.729,35.909],[138.713,35.985],[138.631,36.028],[138.635,36.206],[138.6,36.278],[138.654,36.303],[138.648,36.408],[138.592,36.424],[138.49,36.402],[138.401,36.435],[138.404,36.521],[138.458,36.633],[138.525,36.651],[138.543,36.704],[138.696,36.739],[138.672,36.771],[138.693,36.852],[138.627,36.882],[138.584,36.928],[138.586,36.987],[138.525,37.031],[138.395,36.997],[138.343,36.921],[138.298,36.913],[138.296,36.856],[138.214,36.868],[138.115,36.85],[138.069,36.805],[138.003,36.827],[138.032,36.89],[137.921,36.92],[137.82,36.799],[137.762,36.766],[137.75,36.704],[137.752,36.595],[137.689,36.563],[137.633,36.426],[137.587,36.39],[137.651,36.327],[137.647,36.289],[137.574,36.21],[137.591,36.184],[137.551,36.11],[137.614,36.061],[137.588,36.006],[137.543,35.983],[137.458,35.889],[137.38,35.892],[137.338,35.798],[137.459,35.761],[137.498,35.687],[137.545,35.65],[137.514,35.607],[137.582,35.539],[137.617,35.526],[137.631,35.47],[137.593,35.447],[137.633,35.399],[137.562,35.289],[137.553,35.24],[137.577,35.199],[137.706,35.234],[137.78,35.203],[137.838,35.212]]]},"properties":{"nam":"Nagano Ken","nam_ja":"長野県","id":20}},
{"type":"Feature","geometry":{"type":"Polygon","coordinates":[[[131.329,32.833],[131.359,32.804],[131.475,32.837],[131.569,32.755],[131.592,32.775],[131.712,32.774],[131.737,32.833],[131.858,32.821],[131.885,32.746],[131.874,32.791],[131.945,32.792],[131.984,32.863],[131.958,32.946],[131.896,32.98],[131.912,33.066],[131.855,33.085],[131.805,33.131],[131.889,33.244],[131.747,33.248],[131.691,33.279],[131.586,33.246],[131.511,33.269],[131.497,33.358],[131.586,33.346],[131.702,33.407],[131.734,33.47],[131.729,33.587],[131.66,33.67],[131.585,33.692],[131.498,33.67],[131.494,33.644],[131.425,33.573],[131.278,33.581],[131.185,33.616],[131.189,33.562],[131.163,33.508],[130.974,33.505],[130.895,33.446],[130.85,33.337],[130.86,33.267],[130.836,33.211],[130.887,33.187],[130.839,33.104],[130.886,33.087],[130.969,33.024],[131.023,33.087],[130.978,33.141],[130.992,33.183],[131.038,33.194],[131.115,33.18],[131.16,33.141],[131.174,33.083],[131.214,33.055],[131.263,32.976],[131.246,32.941],[131.263,32.879],[131.329,32.833]]]},"properties":{"nam":"Oita Ken","nam_ja":"大分県","id":44}},
{"type":"Feature","geometry":{"type":"Polygon","coordinates":[[[136.055,34.738],[136.085,34.676],[136.049,34.58],[136.152,34.559],[136.212,34.529],[136.206,34.449],[136.089,34.428],[136.07,34.388],[136.095,34.301],[136.131,34.252],[136.093,34.19],[136.114,34.159],[136.073,34.033],[136.003,34.01],[135.969,33.929],[135.909,33.918],[135.88,33.909],[135.874,33.861],[135.858,33.873],[135.856,33.818],[135.966,33.724],[136.011,33.724],[136.048,33.81],[136.108,33.89],[136.15,33.9],[136.264,33.968],[136.282,34.02],[136.202,34.075],[136.285,34.117],[136.278,34.162],[136.463,34.232],[136.506,34.274],[136.605,34.258],[136.654,34.287],[136.671,34.333],[136.792,34.288],[136.845,34.251],[136.898,34.276],[136.864,34.364],[136.928,34.413],[136.913,34.453],[136.813,34.492],[136.648,34.587],[136.554,34.613],[136.52,34.697],[136.534,34.753],[136.646,34.905],[136.651,34.993],[136.749,35.037],[136.77,35.021],[136.751,35.077],[136.673,35.135],[136.616,35.15],[136.561,35.206],[136.502,35.235],[136.415,35.218],[136.454,35.162],[136.436,35.13],[136.414,34.98],[136.357,34.901],[136.25,34.858],[136.165,34.888],[136.107,34.852],[136.088,34.811],[136.022,34.792],[136.055,34.738]]]},"properties":{"nam":"Mie Ken","nam_ja":"三重県","id":24}},
{"type":"Feature","geometry":{"type":"MultiPolygon","coordinates":[[[[133.268,35.058],[133.251,35.078],[133.136,35.074],[132.99,35.101],[132.95,35.075],[132.863,35.097],[132.787,35.005],[132.72,34.948],[132.65,34.92],[132.71,34.85],[132.615,34.843],[132.537,34.795],[132.435,34.821],[132.298,34.777],[132.259,34.806],[132.221,34.75],[132.142,34.716],[132.161,34.683],[132.116,34.613],[132.115,34.567],[132.036,34.502],[132.068,34.468],[132.084,34.358],[132.159,34.234],[132.245,34.211],[132.232,34.257],[132.325,34.343],[132.374,34.361],[132.478,34.358],[132.524,34.246],[132.568,34.198],[132.64,34.202],[132.772,34.253],[132.801,34.31],[132.847,34.292],[132.895,34.326],[133.079,34.346],[133.129,34.384],[133.27,34.432],[133.29,34.383],[133.367,34.369],[133.384,34.419],[133.431,34.424],[133.446,34.48],[133.445,34.555],[133.383,34.622],[133.365,34.768],[133.378,34.805],[133.297,34.89],[133.32,34.987],[133.268,35.058]]],[[[132.428,34.128],[132.49,34.15],[132.477,34.235],[132.425,34.253],[132.385,34.225],[132.447,34.184],[132.428,34.128]]],[[[132.55,34.079],[132.556,34.18],[132.501,34.184],[132.503,34.133],[132.46,34.082],[132.55,34.079]]]]},"properties":{"nam":"Hiroshima Ken","nam_ja":"広島県","id":34}},
{"type":"Feature","geometry":{"type":"MultiPolygon","coordinates":[[[[148.343,45.291],[148.176,45.26],[148.031,45.272],[147.964,45.418],[147.925,45.438],[147.851,45.365],[147.885,45.26],[147.872,45.226],[147.74,45.196],[147.694,45.144],[147.69,45.095],[147.636,45.076],[147.537,45.106],[147.518,44.999],[147.376,44.909],[147.267,44.868],[147.247,44.813],[147.203,44.798],[147.131,44.83],[147.117,44.779],[147.193,44.765],[147.182,44.689],[147.126,44.649],[147.033,44.638],[147.026,44.599],[146.891,44.518],[146.872,44.441],[146.953,44.427],[147.03,44.519],[147.106,44.569],[147.222,44.582],[147.337,44.715],[147.441,44.773],[147.489,44.782],[147.598,44.855],[147.634,44.908],[147.626,44.972],[147.681,45.003],[147.785,44.948],[147.908,44.961],[148.091,45.107],[148.329,45.224],[148.459,45.25],[148.566,45.311],[148.64,45.335],[148.843,45.352],[148.877,45.393],[148.832,45.428],[148.888,45.484],[148.856,45.542],[148.785,45.557],[148.654,45.538],[148.488,45.42],[148.444,45.353],[148.343,45.291]]],[[[141.579,45.177],[141.723,44.92],[141.778,44.753],[141.787,44.587],[141.757,44.457],[141.674,44.327],[141.658,44.239],[141.662,44.017],[141.632,43.93],[141.562,43.86],[141.521,43.86],[141.388,43.807],[141.33,43.725],[141.386,43.587],[141.359,43.519],[141.429,43.42],[141.424,43.329],[141.302,43.209],[141.162,43.145],[141.01,43.195],[141.017,43.24],[140.914,43.212],[140.792,43.195],[140.718,43.251],[140.641,43.267],[140.507,43.368],[140.36,43.316],[140.326,43.222],[140.444,43.126],[140.512,43.034],[140.522,42.992],[140.415,42.941],[140.306,42.829],[140.305,42.779],[140.247,42.769],[140.186,42.826],[140.142,42.753],[140.046,42.695],[139.926,42.689],[139.872,42.666],[139.824,42.595],[139.852,42.463],[139.829,42.394],[139.767,42.311],[139.797,42.232],[139.881,42.208],[139.923,42.134],[140.026,42.113],[140.12,42.004],[140.141,41.922],[140.122,41.822],[140.076,41.808],[140.062,41.753],[140.009,41.692],[139.984,41.606],[139.988,41.551],[140.029,41.462],[140.077,41.425],[140.216,41.411],[140.259,41.482],[140.406,41.52],[140.439,41.555],[140.437,41.67],[140.602,41.743],[140.626,41.809],[140.664,41.823],[140.727,41.789],[140.931,41.737],[140.968,41.711],[141.031,41.719],[141.113,41.787],[141.184,41.817],[141.148,41.855],[140.959,41.918],[140.879,42.006],[140.821,42.036],[140.76,42.117],[140.707,42.139],[140.579,42.109],[140.516,42.129],[140.384,42.224],[140.287,42.253],[140.277,42.311],[140.316,42.42],[140.372,42.503],[140.477,42.589],[140.584,42.568],[140.701,42.587],[140.777,42.533],[140.782,42.503],[140.872,42.461],[140.943,42.321],[140.997,42.302],[141.093,42.396],[141.208,42.455],[141.351,42.543],[141.497,42.604],[141.625,42.631],[141.811,42.611],[141.9,42.578],[142.029,42.485],[142.196,42.447],[142.278,42.377],[142.478,42.275],[142.586,42.244],[142.673,42.192],[142.762,42.175],[142.818,42.142],[142.965,42.119],[143.011,42.081],[143.136,42.027],[143.216,41.952],[143.295,42.043],[143.336,42.203],[143.308,42.246],[143.323,42.304],[143.433,42.476],[143.632,42.67],[143.861,42.837],[144.049,42.942],[144.169,42.985],[144.314,43.006],[144.371,42.969],[144.486,42.94],[144.632,42.951],[144.723,42.98],[144.782,43.054],[144.822,43.06],[144.885,42.985],[144.962,42.981],[145.024,43],[145.118,43.081],[145.115,43.123],[145.203,43.137],[145.298,43.173],[145.512,43.19],[145.549,43.214],[145.567,43.282],[145.611,43.311],[145.75,43.337],[145.807,43.389],[145.651,43.391],[145.486,43.273],[145.389,43.298],[145.309,43.36],[145.275,43.41],[145.247,43.522],[145.068,43.753],[145.062,43.808],[145.095,43.893],[145.157,43.984],[145.223,44.039],[145.265,44.139],[145.308,44.17],[145.367,44.259],[145.333,44.346],[145.24,44.26],[145.192,44.196],[145.01,44.096],[144.923,44.018],[144.795,43.932],[144.622,43.918],[144.407,43.945],[144.319,43.973],[144.214,44.103],[143.997,44.136],[143.785,44.181],[143.497,44.276],[143.372,44.333],[143.349,44.372],[142.997,44.558],[142.861,44.677],[142.731,44.769],[142.631,44.89],[142.532,45.026],[142.389,45.138],[142.17,45.341],[142.064,45.395],[141.96,45.513],[141.88,45.496],[141.858,45.435],[141.658,45.368],[141.612,45.277],[141.572,45.235],[141.579,45.177]]],[[[141.032,45.275],[141.057,45.318],[141.052,45.449],[140.994,45.427],[140.984,45.384],[141.032,45.275]]],[[[141.15,45.225],[141.142,45.163],[141.24,45.099],[141.331,45.152],[141.295,45.222],[141.199,45.26],[141.15,45.225]]],[[[145.747,44.065],[145.59,43.953],[145.466,43.891],[145.407,43.842],[145.447,43.725],[145.526,43.735],[145.573,43.777],[145.577,43.845],[145.641,43.904],[145.78,43.936],[145.828,44.029],[145.855,44.031],[145.91,44.124],[146.045,44.191],[146.116,44.265],[146.247,44.271],[146.368,44.319],[146.381,44.353],[146.451,44.378],[146.535,44.38],[146.554,44.43],[146.333,44.419],[146.25,44.447],[146.186,44.507],[146.129,44.509],[146.08,44.472],[146.007,44.382],[145.992,44.325],[145.885,44.246],[145.832,44.178],[145.744,44.104],[145.747,44.065]]],[[[146.645,43.703],[146.727,43.735],[146.844,43.81],[146.921,43.839],[146.845,43.89],[146.774,43.876],[146.722,43.833],[146.61,43.817],[146.586,43.744],[146.645,43.703]]],[[[146.116,43.459],[146.177,43.479],[146.141,43.549],[146.079,43.533],[146.116,43.459]]],[[[139.45,42.052],[139.504,42.097],[139.536,42.234],[139.435,42.215],[139.407,42.178],[139.422,42.072],[139.45,42.052]]]]},"properties":{"nam":"Hokkai Do","nam_ja":"北海道","id":1}},
{"type":"Feature","geometry":{"type":"MultiPolygon","coordinates":[[[[134.867,35.658],[134.707,35.654],[134.628,35.641],[134.541,35.669],[134.451,35.629],[134.37,35.615],[134.408,35.588],[134.44,35.443],[134.472,35.383],[134.513,35.354],[134.515,35.277],[134.434,35.229],[134.402,35.241],[134.38,35.218],[134.412,35.157],[134.366,35.145],[134.316,35.043],[134.281,35.035],[134.275,34.963],[134.294,34.908],[134.253,34.851],[134.316,34.802],[134.321,34.722],[134.411,34.728],[134.434,34.767],[134.528,34.783],[134.584,34.771],[134.747,34.768],[134.982,34.641],[135.06,34.625],[135.183,34.649],[135.19,34.681],[135.339,34.722],[135.403,34.693],[135.459,34.735],[135.416,34.819],[135.442,34.939],[135.346,34.965],[135.371,35.045],[135.393,35.111],[135.34,35.15],[135.295,35.142],[135.156,35.226],[135.161,35.257],[135.057,35.258],[134.921,35.316],[134.923,35.394],[135,35.387],[135.05,35.442],[135.037,35.537],[134.926,35.513],[134.854,35.588],[134.867,35.658]]],[[[134.787,34.427],[134.727,34.33],[134.66,34.295],[134.67,34.249],[134.729,34.189],[134.952,34.267],[134.894,34.354],[134.909,34.436],[134.979,34.503],[135.025,34.576],[134.983,34.603],[134.933,34.549],[134.886,34.529],[134.787,34.427]]]]},"properties":{"nam":"Hyogo Ken","nam_ja":"兵庫県","id":28}},
{"type":"Feature","geometry":{"type":"Polygon","coordinates":[[[139.776,36.091],[139.817,36.033],[139.814,35.998],[139.887,35.897],[139.894,35.783],[139.919,35.698],[139.873,35.639],[139.968,35.683],[140.084,35.597],[140.061,35.544],[140.007,35.479],[139.905,35.432],[139.907,35.389],[139.845,35.375],[139.819,35.304],[139.853,35.284],[139.867,35.219],[139.824,35.197],[139.824,35.037],[139.855,34.99],[139.812,34.943],[139.824,34.911],[139.887,34.903],[139.964,34.943],[139.982,35.011],[140.102,35.077],[140.11,35.108],[140.202,35.11],[140.326,35.14],[140.378,35.181],[140.415,35.307],[140.395,35.337],[140.398,35.42],[140.43,35.498],[140.497,35.578],[140.625,35.672],[140.686,35.698],[140.737,35.692],[140.811,35.712],[140.852,35.744],[140.82,35.74],[140.73,35.796],[140.706,35.837],[140.632,35.859],[140.613,35.89],[140.511,35.959],[140.458,35.926],[140.356,35.894],[140.308,35.865],[140.147,35.846],[139.939,35.94],[139.878,36.007],[139.776,36.091]]]},"properties":{"nam":"Chiba Ken","nam_ja":"千葉県","id":12}},
{"type":"Feature","geometry":{"type":"Polygon","coordinates":[[[137.587,36.39],[137.633,36.426],[137.689,36.563],[137.752,36.595],[137.75,36.704],[137.762,36.766],[137.714,36.892],[137.711,36.945],[137.635,36.98],[137.497,36.956],[137.427,36.925],[137.392,36.807],[137.331,36.762],[137.18,36.758],[137.112,36.768],[136.997,36.846],[136.984,36.873],[137.052,36.96],[136.986,36.967],[136.879,36.907],[136.838,36.745],[136.789,36.718],[136.82,36.668],[136.786,36.63],[136.817,36.552],[136.795,36.508],[136.804,36.356],[136.792,36.299],[136.907,36.361],[137.005,36.288],[137.079,36.384],[137.161,36.457],[137.205,36.434],[137.279,36.465],[137.313,36.425],[137.395,36.455],[137.461,36.412],[137.512,36.423],[137.587,36.39]]]},"properties":{"nam":"Toyama Ken","nam_ja":"富山県","id":16}},
{"type":"Feature","geometry":{"type":"MultiPolygon","coordinates":[[[[139.131,35.672],[139.201,35.652],[139.233,35.613],[139.341,35.605],[139.399,35.584],[139.458,35.528],[139.505,35.575],[139.525,35.643],[139.668,35.587],[139.703,35.537],[139.79,35.527],[139.749,35.587],[139.773,35.646],[139.873,35.639],[139.919,35.698],[139.894,35.783],[139.751,35.808],[139.64,35.794],[139.571,35.764],[139.537,35.792],[139.381,35.766],[139.301,35.834],[139.196,35.84],[139.024,35.897],[138.944,35.855],[138.984,35.769],[139.026,35.719],[139.131,35.672]]],[[[139.439,34.679],[139.447,34.746],[139.412,34.787],[139.36,34.799],[139.353,34.718],[139.439,34.679]]],[[[139.502,34.045],[139.562,34.068],[139.539,34.124],[139.473,34.077],[139.502,34.045]]],[[[139.832,33.046],[139.858,33.078],[139.771,33.158],[139.74,33.131],[139.781,33.072],[139.832,33.046]]]]},"properties":{"nam":"Tokyo To","nam_ja":"東京都","id":13}},
{"type":"Feature","geometry":{"type":"Polygon","coordinates":[[[139.665,36.207],[139.588,36.21],[139.526,36.191],[139.444,36.197],[139.377,36.244],[139.324,36.23],[139.238,36.246],[139.164,36.279],[139.108,36.253],[139.016,36.134],[138.931,36.088],[138.847,36.067],[138.829,36.037],[138.755,36.035],[138.713,35.985],[138.729,35.909],[138.893,35.84],[138.944,35.855],[139.024,35.897],[139.196,35.84],[139.301,35.834],[139.381,35.766],[139.537,35.792],[139.571,35.764],[139.64,35.794],[139.751,35.808],[139.894,35.783],[139.887,35.897],[139.814,35.998],[139.817,36.033],[139.776,36.091],[139.73,36.088],[139.688,36.2],[139.665,36.207]]]},"properties":{"nam":"Saitama Ken","nam_ja":"埼玉県","id":11}},
{"type":"Feature","geometry":{"type":"MultiPolygon","coordinates":[[[[132.068,34.468],[131.997,34.428],[132.012,34.369],[131.97,34.324],[131.916,34.337],[131.87,34.306],[131.798,34.317],[131.764,34.383],[131.794,34.43],[131.698,34.435],[131.67,34.511],[131.726,34.578],[131.694,34.621],[131.69,34.681],[131.603,34.662],[131.554,34.581],[131.396,34.42],[131.305,34.383],[131.075,34.423],[131.034,34.383],[130.925,34.346],[130.866,34.287],[130.921,34.239],[130.932,34.188],[130.862,34.104],[130.911,34.059],[130.916,33.979],[130.991,33.987],[131.037,34.057],[131.15,34.003],[131.178,33.931],[131.266,33.923],[131.35,33.966],[131.394,34.035],[131.449,33.995],[131.484,34.028],[131.539,33.997],[131.635,34.047],[131.789,34.053],[131.93,33.951],[132.024,33.902],[132.13,33.884],[132.124,33.947],[132.184,33.961],[132.213,34.003],[132.201,34.125],[132.233,34.127],[132.245,34.211],[132.159,34.234],[132.084,34.358],[132.068,34.468]]],[[[132.207,33.857],[132.267,33.877],[132.264,33.949],[132.183,33.951],[132.175,33.902],[132.207,33.857]]]]},"properties":{"nam":"Yamaguchi Ken","nam_ja":"山口県","id":35}},
{"type":"Feature","geometry":{"type":"Polygon","coordinates":[[[140.264,36.933],[140.363,36.885],[140.377,36.838],[140.464,36.792],[140.539,36.859],[140.593,36.881],[140.695,36.888],[140.794,36.86],[140.818,36.909],[140.921,36.934],[140.982,36.997],[140.973,37.038],[140.999,37.111],[141.001,37.184],[141.035,37.357],[141.037,37.467],[141.024,37.646],[140.987,37.824],[140.931,37.896],[140.857,37.891],[140.853,37.796],[140.777,37.781],[140.695,37.803],[140.693,37.859],[140.661,37.901],[140.562,37.911],[140.488,37.9],[140.475,37.947],[140.387,37.968],[140.346,37.951],[140.28,37.977],[140.263,37.836],[140.299,37.809],[140.237,37.747],[140.167,37.757],[140.1,37.741],[140.054,37.771],[139.993,37.759],[139.958,37.814],[139.81,37.803],[139.681,37.847],[139.742,37.818],[139.68,37.775],[139.594,37.665],[139.547,37.628],[139.585,37.513],[139.457,37.518],[139.362,37.47],[139.235,37.445],[139.237,37.377],[139.212,37.286],[139.165,37.238],[139.218,37.21],[139.253,37.16],[139.236,37.116],[139.256,37.057],[139.251,36.963],[139.232,36.941],[139.393,36.911],[139.46,36.97],[139.495,36.968],[139.619,37.017],[139.673,37.058],[139.821,37.087],[139.831,37.132],[139.955,37.155],[140.101,37.123],[140.194,37.064],[140.241,37.001],[140.264,36.933]]]},"properties":{"nam":"Fukushima Ken","nam_ja":"福島県","id":7}},
{"type":"Feature","geometry":{"type":"MultiPolygon","coordinates":[[[[136.792,36.299],[136.804,36.356],[136.795,36.508],[136.817,36.552],[136.786,36.63],[136.82,36.668],[136.789,36.718],[136.838,36.745],[136.879,36.907],[136.986,36.967],[137.052,36.96],[137.051,37.107],[136.971,37.048],[136.915,37.091],[136.885,37.165],[136.918,37.221],[137.007,37.184],[137.069,37.218],[137.099,37.279],[137.164,37.305],[137.228,37.297],[137.268,37.337],[137.237,37.389],[137.257,37.432],[137.361,37.452],[137.325,37.53],[137.261,37.531],[137.122,37.491],[137.071,37.455],[136.924,37.395],[136.874,37.407],[136.756,37.364],[136.735,37.286],[136.7,37.242],[136.67,37.149],[136.721,37.142],[136.723,37.056],[136.766,37.003],[136.767,36.902],[136.747,36.837],[136.669,36.701],[136.574,36.587],[136.416,36.42],[136.244,36.296],[136.332,36.229],[136.359,36.166],[136.409,36.172],[136.44,36.137],[136.542,36.154],[136.603,36.128],[136.664,36.068],[136.754,36.086],[136.852,36.248],[136.792,36.299]]],[[[136.946,37.091],[137.04,37.117],[137.023,37.144],[136.926,37.145],[136.946,37.091]]]]},"properties":{"nam":"Ishikawa Ken","nam_ja":"石川県","id":17}},
{"type":"Feature","geometry":{"type":"Polygon","coordinates":[[[135.768,35.356],[135.812,35.412],[135.89,35.404],[135.94,35.52],[135.982,35.487],[136.026,35.53],[136.105,35.529],[136.112,35.576],[136.177,35.596],[136.134,35.67],[136.15,35.698],[136.281,35.659],[136.324,35.717],[136.328,35.775],[136.378,35.795],[136.433,35.775],[136.59,35.796],[136.666,35.785],[136.723,35.808],[136.789,35.799],[136.832,35.858],[136.792,35.947],[136.726,35.996],[136.754,36.086],[136.664,36.068],[136.603,36.128],[136.542,36.154],[136.44,36.137],[136.409,36.172],[136.359,36.166],[136.332,36.229],[136.244,36.296],[136.196,36.264],[136.123,36.249],[136.132,36.214],[136.047,36.109],[136.011,36.034],[135.958,35.976],[135.997,35.936],[135.999,35.882],[136.069,35.825],[136.1,35.777],[136.097,35.724],[136.064,35.659],[136.017,35.764],[135.98,35.733],[135.98,35.63],[135.866,35.609],[135.798,35.525],[135.736,35.493],[135.653,35.478],[135.631,35.538],[135.576,35.493],[135.48,35.522],[135.486,35.558],[135.449,35.524],[135.459,35.473],[135.525,35.421],[135.534,35.377],[135.642,35.367],[135.701,35.344],[135.768,35.356]]]},"properties":{"nam":"Fukui Ken","nam_ja":"福井県","id":18}},
{"type":"Feature","geometry":{"type":"MultiPolygon","coordinates":[[[[133.598,34.044],[133.511,33.97],[133.452,33.983],[133.356,33.979],[133.325,33.994],[133.234,33.952],[133.133,33.927],[133.088,33.95],[133.036,34.038],[132.972,34.115],[132.921,34.116],[132.92,34.067],[132.857,34.055],[132.77,33.999],[132.753,33.909],[132.709,33.907],[132.686,33.807],[132.699,33.767],[132.651,33.697],[132.581,33.652],[132.472,33.605],[132.417,33.544],[132.264,33.459],[132.171,33.445],[132.183,33.412],[132.28,33.447],[132.299,33.474],[132.408,33.458],[132.385,33.42],[132.369,33.322],[132.482,33.289],[132.551,33.225],[132.455,33.137],[132.506,33.003],[132.514,32.95],[132.59,32.925],[132.655,32.925],[132.686,32.977],[132.663,33.109],[132.747,33.203],[132.787,33.267],[132.895,33.312],[132.902,33.339],[132.836,33.4],[132.847,33.479],[132.956,33.466],[133.013,33.491],[133.063,33.543],[133.046,33.575],[133.077,33.653],[133.116,33.66],[133.157,33.75],[133.257,33.794],[133.415,33.84],[133.5,33.83],[133.539,33.877],[133.66,33.882],[133.687,33.916],[133.679,34.012],[133.598,34.044]]],[[[132.959,34.191],[133.052,34.227],[133.024,34.295],[132.945,34.209],[132.959,34.191]]],[[[133.034,34.108],[133.088,34.158],[133.037,34.195],[133.015,34.141],[133.034,34.108]]]]},"properties":{"nam":"Ehime Ken","nam_ja":"愛媛県","id":38}},
{"type":"Feature","geometry":{"type":"Polygon","coordinates":[[[135.728,34.778],[135.673,34.702],[135.65,34.545],[135.677,34.525],[135.675,34.4],[135.651,34.383],[135.673,34.281],[135.668,34.224],[135.622,34.16],[135.588,34.146],[135.54,34.075],[135.58,34.057],[135.636,33.991],[135.607,33.899],[135.687,33.904],[135.756,33.885],[135.808,33.906],[135.858,33.873],[135.874,33.861],[135.88,33.909],[135.909,33.918],[135.927,33.981],[136.003,34.01],[136.073,34.033],[136.114,34.159],[136.093,34.19],[136.131,34.252],[136.095,34.301],[136.07,34.388],[136.089,34.428],[136.206,34.449],[136.212,34.529],[136.152,34.559],[136.049,34.58],[136.085,34.676],[136.055,34.738],[136.014,34.708],[135.916,34.753],[135.89,34.709],[135.755,34.728],[135.728,34.778]]]},"properties":{"nam":"Nara Ken","nam_ja":"奈良県","id":29}},
{"type":"Feature","geometry":{"type":"MultiPolygon","coordinates":[[[[133.136,35.074],[133.157,35.149],[133.194,35.17],[133.178,35.232],[133.31,35.268],[133.292,35.32],[133.32,35.407],[133.221,35.481],[133.198,35.526],[133.244,35.549],[133.219,35.578],[133.151,35.56],[133.111,35.598],[133.027,35.539],[132.965,35.515],[132.864,35.513],[132.727,35.47],[132.671,35.401],[132.664,35.337],[132.626,35.287],[132.529,35.252],[132.421,35.189],[132.386,35.129],[132.309,35.057],[132.237,35.035],[132.105,34.945],[131.943,34.791],[131.899,34.775],[131.844,34.709],[131.795,34.688],[131.69,34.681],[131.694,34.621],[131.726,34.578],[131.67,34.511],[131.698,34.435],[131.794,34.43],[131.764,34.383],[131.798,34.317],[131.87,34.306],[131.916,34.337],[131.97,34.324],[132.012,34.369],[131.997,34.428],[132.068,34.468],[132.036,34.502],[132.115,34.567],[132.116,34.613],[132.161,34.683],[132.142,34.716],[132.221,34.75],[132.259,34.806],[132.298,34.777],[132.435,34.821],[132.537,34.795],[132.615,34.843],[132.71,34.85],[132.65,34.92],[132.72,34.948],[132.787,35.005],[132.863,35.097],[132.95,35.075],[132.99,35.101],[133.136,35.074]]],[[[133.248,36.161],[133.327,36.168],[133.37,36.206],[133.384,36.27],[133.278,36.339],[133.195,36.301],[133.178,36.25],[133.248,36.161]]],[[[132.998,36.039],[133.056,36.087],[133.012,36.134],[132.948,36.08],[132.998,36.039]]],[[[133.068,36.035],[133.137,36.082],[133.071,36.106],[133.068,36.035]]]]},"properties":{"nam":"Shimane Ken","nam_ja":"島根県","id":32}},
{"type":"Feature","geometry":{"type":"Polygon","coordinates":[[[141.632,38.971],[141.744,38.993],[141.848,39.039],[141.81,39.093],[141.915,39.107],[141.885,39.155],[141.931,39.221],[141.889,39.274],[141.9,39.334],[141.939,39.387],[142.03,39.416],[142.037,39.483],[142.066,39.534],[142.037,39.573],[142.018,39.655],[141.986,39.683],[141.997,39.778],[141.972,39.883],[141.939,39.933],[141.956,39.98],[141.852,40.056],[141.827,40.101],[141.86,40.165],[141.817,40.271],[141.754,40.369],[141.683,40.451],[141.587,40.407],[141.537,40.348],[141.436,40.374],[141.351,40.332],[141.317,40.373],[141.219,40.317],[141.101,40.282],[141.016,40.219],[140.955,40.248],[140.905,40.222],[140.882,40.151],[140.846,39.974],[140.878,39.875],[140.785,39.872],[140.784,39.829],[140.847,39.793],[140.783,39.73],[140.823,39.688],[140.805,39.612],[140.728,39.556],[140.724,39.481],[140.677,39.447],[140.654,39.391],[140.704,39.343],[140.693,39.302],[140.77,39.252],[140.77,39.124],[140.801,39.077],[140.764,39],[140.774,38.958],[140.826,38.964],[140.992,38.876],[141.094,38.888],[141.104,38.829],[141.14,38.79],[141.258,38.763],[141.308,38.82],[141.422,38.78],[141.454,38.812],[141.451,38.877],[141.489,38.907],[141.491,38.998],[141.568,38.996],[141.632,38.971]]]},"properties":{"nam":"Iwate Ken","nam_ja":"岩手県","id":3}},
{"type":"Feature","geometry":{"type":"Polygon","coordinates":[[[134.402,35.241],[134.434,35.229],[134.515,35.277],[134.513,35.354],[134.472,35.383],[134.44,35.443],[134.408,35.588],[134.37,35.615],[134.302,35.592],[134.267,35.559],[134.122,35.527],[133.963,35.523],[133.79,35.501],[133.668,35.507],[133.59,35.532],[133.497,35.516],[133.389,35.454],[133.288,35.481],[133.244,35.549],[133.198,35.526],[133.221,35.481],[133.32,35.407],[133.292,35.32],[133.31,35.268],[133.178,35.232],[133.194,35.17],[133.157,35.149],[133.136,35.074],[133.251,35.078],[133.268,35.058],[133.288,35.096],[133.403,35.114],[133.397,35.165],[133.501,35.193],[133.566,35.255],[133.596,35.345],[133.747,35.318],[133.797,35.294],[133.925,35.308],[133.997,35.353],[134.01,35.308],[134.097,35.306],[134.139,35.279],[134.153,35.195],[134.266,35.208],[134.321,35.202],[134.402,35.241]]]},"properties":{"nam":"Tottori Ken","nam_ja":"鳥取県","id":31}},
{"type":"Feature","geometry":{"type":"Polygon","coordinates":[[[133.679,34.012],[133.687,33.916],[133.66,33.882],[133.747,33.837],[133.839,33.845],[133.913,33.791],[133.951,33.829],[134.033,33.809],[134.057,33.78],[134.067,33.689],[134.174,33.684],[134.149,33.629],[134.195,33.561],[134.305,33.549],[134.363,33.589],[134.363,33.629],[134.566,33.734],[134.58,33.77],[134.747,33.832],[134.668,33.844],[134.698,33.95],[134.618,33.987],[134.588,34.03],[134.623,34.181],[134.558,34.222],[134.44,34.208],[134.418,34.158],[134.359,34.184],[134.259,34.183],[134.146,34.165],[134.122,34.119],[134.05,34.118],[134.001,34.075],[133.921,34.114],[133.783,34.08],[133.679,34.012]]]},"properties":{"nam":"Tokushima Ken","nam_ja":"徳島県","id":36}},
{"type":"Feature","geometry":{"type":"MultiPolygon","coordinates":[[[[130.36,32.168],[130.308,32.108],[130.266,32.128],[130.175,32.105],[130.204,32.069],[130.179,31.998],[130.223,31.911],[130.166,31.794],[130.188,31.758],[130.252,31.731],[130.327,31.633],[130.321,31.512],[130.272,31.426],[130.189,31.354],[130.215,31.251],[130.307,31.266],[130.353,31.25],[130.445,31.253],[130.514,31.197],[130.587,31.17],[130.655,31.218],[130.658,31.271],[130.57,31.314],[130.515,31.464],[130.561,31.596],[130.618,31.657],[130.615,31.7],[130.686,31.734],[130.794,31.702],[130.822,31.656],[130.764,31.562],[130.71,31.566],[130.695,31.625],[130.627,31.621],[130.591,31.59],[130.636,31.546],[130.697,31.555],[130.698,31.463],[130.757,31.421],[130.802,31.337],[130.766,31.18],[130.731,31.117],[130.676,31.063],[130.669,31.009],[130.792,31.082],[130.872,31.095],[130.96,31.137],[131.016,31.228],[131.066,31.228],[131.108,31.26],[131.073,31.291],[131.104,31.328],[131.017,31.356],[131.018,31.391],[131.074,31.455],[131.16,31.462],[131.199,31.514],[131.204,31.579],[131.163,31.637],[131.128,31.626],[131.025,31.666],[131.016,31.745],[130.99,31.775],[130.876,31.815],[130.897,31.887],[130.882,31.92],[130.816,31.941],[130.777,32.014],[130.703,32.057],[130.72,32.101],[130.622,32.156],[130.404,32.12],[130.36,32.168]]],[[[130.158,32.09],[130.19,32.198],[130.12,32.212],[130.099,32.175],[130.111,32.126],[130.158,32.09]]],[[[130.948,30.635],[130.95,30.587],[130.872,30.466],[130.857,30.369],[130.871,30.344],[130.962,30.383],[130.958,30.459],[130.997,30.544],[131.054,30.606],[131.077,30.697],[131.081,30.778],[131.06,30.835],[131.002,30.784],[131,30.748],[130.94,30.67],[130.948,30.635]]],[[[130.522,30.226],[130.602,30.251],[130.657,30.307],[130.669,30.377],[130.569,30.433],[130.469,30.461],[130.416,30.395],[130.376,30.372],[130.436,30.24],[130.522,30.226]]],[[[129.645,28.433],[129.578,28.467],[129.543,28.462],[129.442,28.382],[129.337,28.367],[129.303,28.329],[129.215,28.298],[129.24,28.217],[129.289,28.189],[129.332,28.129],[129.403,28.157],[129.465,28.213],[129.455,28.293],[129.535,28.306],[129.645,28.433]]],[[[129.945,28.274],[129.977,28.287],[129.972,28.342],[129.913,28.31],[129.945,28.274]]],[[[129.317,28.061],[129.325,28.109],[129.185,28.16],[129.229,28.089],[129.317,28.061]]],[[[128.902,27.753],[128.881,27.72],[128.925,27.665],[128.986,27.67],[129.035,27.771],[128.968,27.818],[128.965,27.892],[128.889,27.881],[128.878,27.826],[128.902,27.753]]],[[[128.576,27.401],[128.519,27.372],[128.556,27.329],[128.635,27.365],[128.576,27.401]]]]},"properties":{"nam":"Kagoshima Ken","nam_ja":"鹿児島県","id":46}},
{"type":"Feature","geometry":{"type":"MultiPolygon","coordinates":[[[[139.232,36.941],[139.251,36.963],[139.256,37.057],[139.236,37.116],[139.253,37.16],[139.218,37.21],[139.165,37.238],[139.212,37.286],[139.237,37.377],[139.235,37.445],[139.362,37.47],[139.457,37.518],[139.585,37.513],[139.547,37.628],[139.594,37.665],[139.68,37.775],[139.742,37.818],[139.681,37.847],[139.629,37.894],[139.644,37.995],[139.693,38.115],[139.683,38.17],[139.861,38.232],[139.9,38.276],[139.817,38.356],[139.747,38.362],[139.723,38.394],[139.722,38.497],[139.602,38.523],[139.548,38.553],[139.457,38.396],[139.45,38.239],[139.427,38.177],[139.314,38.049],[139.23,37.995],[139.074,37.952],[138.865,37.837],[138.82,37.795],[138.768,37.648],[138.712,37.558],[138.655,37.52],[138.554,37.378],[138.434,37.32],[138.296,37.212],[138.226,37.172],[138.102,37.174],[138.051,37.13],[137.909,37.06],[137.635,36.98],[137.711,36.945],[137.714,36.892],[137.762,36.766],[137.82,36.799],[137.921,36.92],[138.032,36.89],[138.003,36.827],[138.069,36.805],[138.115,36.85],[138.214,36.868],[138.296,36.856],[138.298,36.913],[138.343,36.921],[138.395,36.997],[138.525,37.031],[138.586,36.987],[138.584,36.928],[138.627,36.882],[138.693,36.852],[138.672,36.771],[138.696,36.739],[138.826,36.772],[138.979,36.891],[138.97,36.981],[139.047,36.987],[139.097,37.059],[139.232,36.941]]],[[[138.245,37.803],[138.383,37.846],[138.49,37.92],[138.572,38.065],[138.482,38.062],[138.436,38.116],[138.493,38.204],[138.515,38.332],[138.454,38.308],[138.439,38.266],[138.326,38.194],[138.233,38.061],[138.274,38.003],[138.343,37.964],[138.285,37.92],[138.282,37.868],[138.245,37.803]]]]},"properties":{"nam":"Niigata Ken","nam_ja":"新潟県","id":15}},
{"type":"Feature","geometry":{"type":"Polygon","coordinates":[[[132.655,32.925],[132.712,32.902],[132.661,32.856],[132.648,32.775],[132.711,32.798],[132.791,32.748],[132.85,32.785],[132.924,32.783],[132.949,32.856],[133.009,32.882],[132.993,32.93],[133.011,33.015],[133.093,33.035],[133.17,33.15],[133.256,33.226],[133.238,33.296],[133.279,33.384],[133.332,33.372],[133.437,33.439],[133.562,33.496],[133.565,33.514],[133.729,33.538],[133.934,33.487],[133.959,33.442],[134.031,33.412],[134.039,33.37],[134.163,33.265],[134.187,33.293],[134.21,33.394],[134.241,33.463],[134.305,33.549],[134.195,33.561],[134.149,33.629],[134.174,33.684],[134.067,33.689],[134.057,33.78],[134.033,33.809],[133.951,33.829],[133.913,33.791],[133.839,33.845],[133.747,33.837],[133.66,33.882],[133.539,33.877],[133.5,33.83],[133.415,33.84],[133.257,33.794],[133.157,33.75],[133.116,33.66],[133.077,33.653],[133.046,33.575],[133.063,33.543],[133.013,33.491],[132.956,33.466],[132.847,33.479],[132.836,33.4],[132.902,33.339],[132.895,33.312],[132.787,33.267],[132.747,33.203],[132.663,33.109],[132.686,32.977],[132.655,32.925]]]},"properties":{"nam":"Kochi Ken","nam_ja":"高知県","id":39}},
{"type":"Feature","geometry":{"type":"Polygon","coordinates":[[[130.72,32.101],[130.703,32.057],[130.777,32.014],[130.816,31.941],[130.882,31.92],[130.897,31.887],[130.876,31.815],[130.99,31.775],[131.016,31.745],[131.025,31.666],[131.128,31.626],[131.163,31.637],[131.204,31.579],[131.199,31.514],[131.16,31.462],[131.241,31.427],[131.255,31.38],[131.309,31.39],[131.371,31.431],[131.388,31.485],[131.381,31.555],[131.461,31.632],[131.449,31.68],[131.482,31.786],[131.454,31.869],[131.483,31.98],[131.592,32.307],[131.642,32.407],[131.65,32.457],[131.708,32.587],[131.742,32.592],[131.763,32.659],[131.885,32.746],[131.858,32.821],[131.737,32.833],[131.712,32.774],[131.592,32.775],[131.569,32.755],[131.475,32.837],[131.359,32.804],[131.329,32.833],[131.265,32.826],[131.231,32.744],[131.179,32.711],[131.114,32.639],[131.099,32.578],[131.054,32.588],[131.006,32.493],[131.019,32.439],[131.066,32.407],[131.074,32.357],[131.111,32.328],[131.046,32.244],[131.1,32.201],[131.096,32.153],[131.003,32.169],[130.974,32.122],[130.913,32.131],[130.857,32.1],[130.72,32.101]]]},"properties":{"nam":"Miyazaki Ken","nam_ja":"宮崎県","id":45}},
{"type":"Feature","geometry":{"type":"Polygon","coordinates":[[[138.916,35.401],[138.995,35.403],[139.019,35.33],[138.975,35.262],[138.988,35.201],[139.031,35.15],[139.111,35.141],[139.145,35.151],[139.143,35.233],[139.211,35.278],[139.33,35.312],[139.438,35.319],[139.545,35.308],[139.657,35.185],[139.725,35.212],[139.697,35.265],[139.641,35.303],[139.657,35.342],[139.636,35.452],[139.79,35.527],[139.703,35.537],[139.668,35.587],[139.525,35.643],[139.505,35.575],[139.458,35.528],[139.399,35.584],[139.341,35.605],[139.233,35.613],[139.201,35.652],[139.131,35.672],[139.129,35.564],[139.085,35.512],[138.954,35.46],[138.916,35.401]]]},"properties":{"nam":"Kanagawa Ken","nam_ja":"神奈川県","id":14}}
]}